STARLINK-4749           
1 53818U 22114A   22274.25001157 -.00016798  00000+0 -11473-3 0  9994
2 53818  53.2147 198.3969 0001492  89.7652 276.8318 15.73354496  2494
STARLINK-4738           
1 53819U 22114B   22274.58334491  .00008326  00000+0  63651-4 0  9993
2 53819  53.2143 196.7383 0000182  35.8814  62.6290 15.73208144  2555
STARLINK-4758           
1 53820U 22114C   22274.58334491  .00023243  00000+0  16865-3 0  9994
2 53820  53.2145 196.7439 0001510  99.7262 356.5818 15.73327312  2553
STARLINK-4752           
1 53821U 22114D   22273.91667824 -.00058416  00000+0 -41354-3 0  9993
2 53821  53.2152 200.0395 0001178  81.5470 198.4485 15.73265096  1307
STARLINK-4713           
1 53822U 22114E   22274.24340006  .00697653  11520-4  65954-3 0  9997
2 53822  53.2132 196.8721 0056582  89.5948 271.1570 16.07737659  2513
STARLINK-4748           
1 53823U 22114F   22273.91667824  .00152781  19324-4  55524-3 0  9991
2 53823  53.2139 199.2727 0018518  83.5759 207.5432 15.87981317  1300
STARLINK-4757           
1 53824U 22114G   22274.58334491 -.00034235  00000+0 -24055-3 0  9993
2 53824  53.2161 196.7421 0001078  90.1115   9.5954 15.73196010  2552
STARLINK-4751           
1 53825U 22114H   22274.25001157 -.00012561  00000+0 -85053-4 0  9992
2 53825  53.2149 198.3902 0001219  55.3727 314.7500 15.73243736  2499
STARLINK-4756           
1 53826U 22114J   22274.25001157  .00006687  00000+0  52024-4 0  9995
2 53826  53.2149 198.3844 0001220  79.6725 293.4985 15.73199102  2491
STARLINK-4764           
1 53827U 22114K   22274.25001157  .00012369  00000+0  92448-4 0  9994
2 53827  53.2147 198.3865 0001768  38.8433 332.5661 15.73192336  2491
STARLINK-4760           
1 53828U 22114L   22274.58334491 -.00009552  00000+0 -63724-4 0  9998
2 53828  53.2145 196.7313 0001024  92.9988   9.6439 15.73198970  2553
STARLINK-4759           
1 53829U 22114M   22273.91667824 -.00064845  00000+0 -46011-3 0  9999
2 53829  53.2162 200.0375 0001263  31.5391 251.4586 15.73253794  1300
STARLINK-4761           
1 53830U 22114N   22274.58334491 -.00010196  00000+0 -68376-4 0  9995
2 53830  53.2148 196.7291 0001055  86.1946  17.6610 15.73181771  2558
STARLINK-4649           
1 53831U 22114P   22274.25001157 -.00014769  00000+0 -10094-3 0  9993
2 53831  53.2148 198.3857 0001043  71.1515 301.3685 15.73213184  2490
STARLINK-4747           
1 53832U 22114Q   22274.58334491  .00044565  00000+0  32056-3 0  9997
2 53832  53.2145 196.7263 0001239  82.6836  22.3318 15.73178171  2557
STARLINK-4771           
1 53833U 22114R   22274.25001157 -.00004593  00000+0 -28294-4 0  9991
2 53833  53.2142 198.3799 0001206  71.5690 302.7563 15.73224030  2492
STARLINK-4737           
1 53834U 22114S   22274.58334491 -.00011664  00000+0 -78829-4 0  9994
2 53834  53.2147 196.7246 0001090  84.1632  22.0826 15.73193837  2555
STARLINK-4783           
1 53835U 22114T   22274.58334491 -.00008779  00000+0 -58269-4 0  9994
2 53835  53.2141 196.7262 0000916  87.0742  17.4216 15.73175521  2559
STARLINK-4778           
1 53836U 22114U   22274.58334491  .00073097  00000+0  52116-3 0  9992
2 53836  53.2150 196.7195 0001035  70.9190  36.5348 15.73180253  2552
STARLINK-4776           
1 53837U 22114V   22274.58334491 -.00013770  00000+0 -93816-4 0  9990
2 53837  53.2149 196.7268 0001156  91.1620  14.4714 15.73210116  2553
STARLINK-4773           
1 53838U 22114W   22274.58334491 -.00049079  00000+0 -34722-3 0  9992
2 53838  53.2148 196.7217 0001189  75.7496  32.2748 15.73206644  2558
STARLINK-4784           
1 53839U 22114X   22274.25001157  .00014589  00000+0  10814-3 0  9999
2 53839  53.2152 198.3763 0001238  57.3299 320.5433 15.73209845  2493
STARLINK-4766           
1 53840U 22114Y   22274.58334491 -.00033147  00000+0 -23248-3 0  9995
2 53840  53.2141 196.7160 0000979  86.8021  23.0013 15.73221272  2551
STARLINK-4750           
1 53841U 22114Z   22274.25001157  .00016511  00000+0  12182-3 0  9999
2 53841  53.2149 198.3711 0001282  65.8184 313.8655 15.73201156  2499
STARLINK-4754           
1 53842U 22114AA  22274.58334491 -.00014037  00000+0 -95727-4 0  9996
2 53842  53.2142 196.7139 0001153  73.8533  37.1121 15.73208673  2555
STARLINK-4769           
1 53843U 22114AB  22274.58334491 -.00089796  00000+0 -64214-3 0  9997
2 53843  53.2139 196.7150 0001190  74.0597  35.2188 15.73203558  2558
STARLINK-4745           
1 53844U 22114AC  22274.25001157  .00043665  00000+0  31386-3 0  9999
2 53844  53.2147 198.3640 0001028  50.4874 332.7528 15.73204466  2491
STARLINK-4753           
1 53845U 22114AD  22274.25001157  .00008257  00000+0  63170-4 0  9995
2 53845  53.2153 198.3697 0001284  59.2687 322.1870 15.73207108  2493
STARLINK-4746           
1 53846U 22114AE  22274.58334491 -.00011431  00000+0 -77100-4 0  9990
2 53846  53.2151 196.7126 0001129  97.2264  16.1497 15.73213542  2553
STARLINK-4777           
1 53847U 22114AF  22274.58334491  .00022686  00000+0  16568-3 0  9993
2 53847  53.2144 196.7127 0000909  79.9480  31.6813 15.73190798  2550
STARLINK-4780           
1 53848U 22114AG  22274.25001157  .00010684  00000+0  80407-4 0  9997
2 53848  53.2145 198.3590 0001120  73.5347 312.0917 15.73209831  2495
STARLINK-4770           
1 53849U 22114AH  22274.25001157 -.00056667  00000+0 -40113-3 0  9990
2 53849  53.2154 198.3652 0001217  65.6072 318.2057 15.73254027  2499
STARLINK-4767           
1 53850U 22114AJ  22274.25001157  .00006106  00000+0  47854-4 0  9993
2 53850  53.2145 198.3554 0001132  60.2804 327.1264 15.73216037  2490
STARLINK-4755           
1 53851U 22114AK  22274.58334491 -.00010360  00000+0 -69484-4 0  9992
2 53851  53.2145 196.7091 0001065  97.8570  16.1351 15.73202253  2554
STARLINK-4797           
1 53852U 22114AL  22274.58334491 -.00018781  00000+0 -12958-3 0  9991
2 53852  53.2148 196.7030 0001158  85.5679  32.0108 15.73220744  2550
STARLINK-4794           
1 53853U 22114AM  22274.58334491 -.00015657  00000+0 -10729-3 0  9995
2 53853  53.2156 196.7098 0001025  85.7368  29.4215 15.73214020  2553
STARLINK-4800           
1 53854U 22114AN  22274.58334491 -.00029306  00000+0 -20496-3 0  9994
2 53854  53.2151 196.7020 0001029  85.5701  33.1530 15.73218700  2558
STARLINK-4703           
1 53855U 22114AP  22274.58334491 -.00010281  00000+0 -68907-4 0  9997
2 53855  53.2140 196.7039 0000955  87.7595  27.9868 15.73206848  2554
STARLINK-4795           
1 53856U 22114AQ  22273.91667824 -.00041327  00000+0 -29076-3 0  9991
2 53856  53.2147 199.9917 0000972  88.4582 215.3963 15.73258628  1309
STARLINK-4809           
1 53857U 22114AR  22274.58334491 -.00031473  00000+0 -22058-3 0  9991
2 53857  53.2143 196.7026 0001013  89.7969  27.1793 15.73210080  2550
STARLINK-4798           
1 53858U 22114AS  22274.58334491 -.00041579  00000+0 -29318-3 0  9996
2 53858  53.2148 196.6994 0001145  83.9406  35.4085 15.73209649  2552
STARLINK-4790           
1 53859U 22114AT  22274.58334491  .00021954  00000+0  16060-3 0  9990
2 53859  53.2142 196.6995 0001089  86.9953  31.1620 15.73175025  2553
STARLINK-4799           
1 53860U 22114AU  22274.58334491 -.00028514  00000+0 -19916-3 0  9996
2 53860  53.2140 196.6936 0000973  83.4283  37.6737 15.73232805  2557
STARLINK-4781           
1 53861U 22114AV  22274.58334491  .00009780  00000+0  74047-4 0  9996
2 53861  53.2140 196.6956 0000951  83.6199  36.3479 15.73190566  2550
STARLINK-4792           
1 53862U 22114AW  22274.58334491  .00060228  00000+0  43099-3 0  9993
2 53862  53.2143 196.6925 0001223  79.0793  43.2416 15.73171993  2553
STARLINK-4788           
1 53863U 22114AX  22274.58334491 -.00062098  00000+0 -44075-3 0  9998
2 53863  53.2141 196.6941 0001058  68.2262  52.3210 15.73229893  2553
STARLINK-4779           
1 53864U 22114AY  22274.58334491  .00018473  00000+0  13565-3 0  9995
2 53864  53.2141 196.6891 0001058  78.3464  45.1332 15.73216213  2551
STARLINK-4785           
1 53865U 22114AZ  22274.58334491 -.00002411  00000+0 -12774-4 0  9995
2 53865  53.2143 196.6904 0001109  80.8186  42.1425 15.73188831  2559
STARLINK-4762           
1 53866U 22114BA  22274.58334491 -.00015435  00000+0 -10578-3 0  9995
2 53866  53.2140 196.6855 0001035  82.5738  42.7318 15.73195911  2556
STARLINK-4793           
1 53867U 22114BB  22274.58334491  .00066062  00000+0  47216-3 0  9995
2 53867  53.2150 196.6870 0000997  86.5743  37.5283 15.73163178  2554
STARLINK-4789           
1 53868U 22114BC  22274.58334491  .00099919  00000+0  70179-3 0  9997
2 53868  53.2152 196.6839 0001411 111.1931  16.9226 15.73403067  2550
STARLINK-4810           
1 53869U 22114BD  22274.58334491 -.00020207  00000+0 -13987-3 0  9998
2 53869  53.2145 196.6873 0000967  67.0494  57.6555 15.73207136  2555
STARLINK-4732           
1 53870U 22114BE  22274.58334491 -.00060643  00000+0 -43021-3 0  9990
2 53870  53.2143 196.6842 0000922  80.9176  45.5944 15.73231842  2552
STARLINK-4740           
1 53871U 22114BF  22274.25001157  .00054907  00000+0  39280-3 0  9991
2 53871  53.2144 198.3338 0001238  70.0362 328.0878 15.73216668  2498
FALCON 9 DEB            
1 53872U 22114BG  22274.16804789  .01470619  11668-4  95569-3 0  9996
2 53872  53.2158 197.1192 0048020  94.2270 266.4257 16.13773014  3052
FALCON 9 DEB            
1 53873U 22114BH  22274.22696309  .01288506  11670-4  85401-3 0  9990
2 53873  53.2099 196.7657 0044569  95.1903 265.4223 16.13895464  3062
FALCON 9 DEB            
1 53874U 22114BJ  22274.21802544  .01354741  11708-4  82629-3 0  9996
2 53874  53.2143 196.6984 0042272  88.2104 272.3775 16.15218760  3069
FALCON 9 DEB            
1 53875U 22114BK  22274.15379856  .01446265  11728-4  83117-3 0  9993
2 53875  53.2157 197.0099 0041760  89.8234 270.7590 16.16034257  3053
CHUANGXIN 16B (CX-16B)  
1 53876U 22102B   22273.89907570  .00004331  00000+0  40653-3 0  9998
2 53876  28.9977 119.4417 0004830 291.4546  68.5535 14.91813200  1660
